CYGNUS NG-23            
1 65616U 25208A   25347.12152100  .00016130  00000+0  29450-3 0  9997
2 65616  51.6303 140.5889 0003238 241.9684 118.0978 15.49559837   223
DRAGONFLY               
1 65729U 98067XH  25346.67493080  .00219639  00000+0  16127-2 0  9994
2 65729  51.6248 136.0967 0006787 276.9077  83.1148 15.71879709 13154
1998-067XK              
1 65731U 98067XK  25347.11717013  .00128039  00000+0  12217-2 0  9991
2 65731  51.6274 135.3174 0005024 248.4122 111.6339 15.65831493 13202
RSP-03                  
1 65732U 98067XL  25346.80283155  .00161855  00000+0  13718-2 0  9992
2 65732  51.6253 136.2083 0005762 249.7501 110.2876 15.68628297 13179
GHS-01                  
1 65733U 98067XM  25346.69021224  .00264493  00000+0  17047-2 0  9998
2 65733  51.6272 135.4559 0007160 280.4692  79.5500 15.74787819 13171
YOTSUBA-KULOVER         
1 65941U 98067XN  25346.71267056  .00088760  00000+0  10939-2 0  9991
2 65941  51.6283 140.1142 0001404 246.8378 113.2466 15.59447843  9857
BOTAN                   
1 65942U 98067XP  25346.84619684  .00139962  00000+0  14970-2 0  9994
2 65942  51.6286 138.7562 0003106 238.0921 121.9771 15.62906067  9888
E-KAGAKU-1              
1 65943U 98067XQ  25344.27717868  .00100705  00000+0  12589-2 0  9990
2 65943  51.6298 152.3458 0005250 191.2269 168.8608 15.59004320  9476
HRC MONOBLOCK CAMERA    
1 66052U 98067XR  25347.29418081  .00058002  00000+0  87488-3 0  9995
2 66052  51.6292 138.7434 0003175 186.7911 173.3037 15.54192892  8924
HTV-X1                  
1 66174U 25241A   25347.12152100  .00016130  00000+0  29450-3 0  9994
2 66174  51.6303 140.5889 0003238 241.9684 118.0978 15.49559837   515
SZ-21 MODULE            
1 66515U 25246C   25347.24231733  .00039667  00000+0  43386-3 0  9995
2 66515  41.4775  12.9802 0006286 263.0797  96.9328 15.62521016  4528
SHENZHOU-22             
1 66645U 25272A   25347.29114768  .00030374  00000+0  37864-3 0  9991
2 66645  41.4684  13.3607 0008235  35.4193 324.7191 15.59202655263579
